CCSDS_OMM_VERS = 2.0
CREATION_DATE  = 
ORIGINATOR     = 

OBJECT_NAME    = STARLINK-36542
OBJECT_ID      = 2026-008A
CENTER_NAME    = EARTH
REF_FRAME      = TEME
TIME_SYSTEM    = UTC
MEAN_ELEMENT_THEORY = SGP/SGP4

EPOCH          = 2026-01-26T12:00:00.998784
MEAN_MOTION    = 15.88616595
ECCENTRICITY   = .0001261
INCLINATION    = 43.0009
RA_OF_ASC_NODE = 89.8417
ARG_OF_PERICENTER = 285.2675
MEAN_ANOMALY   = 211.5543

EPHEMERIS_TYPE = 0
CLASSIFICATION_TYPE = U
NORAD_CAT_ID   = 67445
ELEMENT_SET_NO = 999
REV_AT_EPOCH   = 301
BSTAR          = -.43664E-2
MEAN_MOTION_DOT = -.1116672E-1
MEAN_MOTION_DDOT = 0

CCSDS_OMM_VERS = 2.0
CREATION_DATE  = 
ORIGINATOR     = 

OBJECT_NAME    = STARLINK-36539
OBJECT_ID      = 2026-008B
CENTER_NAME    = EARTH
REF_FRAME      = TEME
TIME_SYSTEM    = UTC
MEAN_ELEMENT_THEORY = SGP/SGP4

EPOCH          = 2026-01-26T12:00:00.998784
MEAN_MOTION    = 15.88633985
ECCENTRICITY   = .0001376
INCLINATION    = 43.0008
RA_OF_ASC_NODE = 89.8346
ARG_OF_PERICENTER = 283.9551
MEAN_ANOMALY   = 215.6143

EPHEMERIS_TYPE = 0
CLASSIFICATION_TYPE = U
NORAD_CAT_ID   = 67446
ELEMENT_SET_NO = 999
REV_AT_EPOCH   = 301
BSTAR          = -.43583E-2
MEAN_MOTION_DOT = -.1115782E-1
MEAN_MOTION_DDOT = 0

CCSDS_OMM_VERS = 2.0
CREATION_DATE  = 
ORIGINATOR     = 

OBJECT_NAME    = STARLINK-36440
OBJECT_ID      = 2026-008C
CENTER_NAME    = EARTH
REF_FRAME      = TEME
TIME_SYSTEM    = UTC
MEAN_ELEMENT_THEORY = SGP/SGP4

EPOCH          = 2026-01-26T12:00:00.998784
MEAN_MOTION    = 15.88658381
ECCENTRICITY   = .0001242
INCLINATION    = 43.0009
RA_OF_ASC_NODE = 89.8275
ARG_OF_PERICENTER = 287.5714
MEAN_ANOMALY   = 214.9609

EPHEMERIS_TYPE = 0
CLASSIFICATION_TYPE = U
NORAD_CAT_ID   = 67447
ELEMENT_SET_NO = 999
REV_AT_EPOCH   = 301
BSTAR          = -.4423E-2
MEAN_MOTION_DOT = -.1131505E-1
MEAN_MOTION_DDOT = 0

CCSDS_OMM_VERS = 2.0
CREATION_DATE  = 
ORIGINATOR     = 

OBJECT_NAME    = STARLINK-36423
OBJECT_ID      = 2026-008D
CENTER_NAME    = EARTH
REF_FRAME      = TEME
TIME_SYSTEM    = UTC
MEAN_ELEMENT_THEORY = SGP/SGP4

EPOCH          = 2026-01-26T12:00:00.998784
MEAN_MOTION    = 15.88679451
ECCENTRICITY   = .0001267
INCLINATION    = 43.0010
RA_OF_ASC_NODE = 89.8204
ARG_OF_PERICENTER = 289.5653
MEAN_ANOMALY   = 215.6421

EPHEMERIS_TYPE = 0
CLASSIFICATION_TYPE = U
NORAD_CAT_ID   = 67448
ELEMENT_SET_NO = 999
REV_AT_EPOCH   = 301
BSTAR          = -.44427E-2
MEAN_MOTION_DOT = -.1137005E-1
MEAN_MOTION_DDOT = 0

CCSDS_OMM_VERS = 2.0
CREATION_DATE  = 
ORIGINATOR     = 

OBJECT_NAME    = STARLINK-36519
OBJECT_ID      = 2026-008E
CENTER_NAME    = EARTH
REF_FRAME      = TEME
TIME_SYSTEM    = UTC
MEAN_ELEMENT_THEORY = SGP/SGP4

EPOCH          = 2026-01-26T12:00:00.998784
MEAN_MOTION    = 15.88700498
ECCENTRICITY   = .0001245
INCLINATION    = 43.0009
RA_OF_ASC_NODE = 89.8132
ARG_OF_PERICENTER = 282.0913
MEAN_ANOMALY   = 226.0080

EPHEMERIS_TYPE = 0
CLASSIFICATION_TYPE = U
NORAD_CAT_ID   = 67449
ELEMENT_SET_NO = 999
REV_AT_EPOCH   = 301
BSTAR          = -.44652E-2
MEAN_MOTION_DOT = -.1143119E-1
MEAN_MOTION_DDOT = 0

CCSDS_OMM_VERS = 2.0
CREATION_DATE  = 
ORIGINATOR     = 

OBJECT_NAME    = STARLINK-36525
OBJECT_ID      = 2026-008F
CENTER_NAME    = EARTH
REF_FRAME      = TEME
TIME_SYSTEM    = UTC
MEAN_ELEMENT_THEORY = SGP/SGP4

EPOCH          = 2026-01-26T12:00:00.998784
MEAN_MOTION    = 15.88717220
ECCENTRICITY   = .0001204
INCLINATION    = 43.0006
RA_OF_ASC_NODE = 89.8046
ARG_OF_PERICENTER = 284.9641
MEAN_ANOMALY   = 226.4853

EPHEMERIS_TYPE = 0
CLASSIFICATION_TYPE = U
NORAD_CAT_ID   = 67450
ELEMENT_SET_NO = 999
REV_AT_EPOCH   = 301
BSTAR          = -.45102E-2
MEAN_MOTION_DOT = -.1154061E-1
MEAN_MOTION_DDOT = 0

CCSDS_OMM_VERS = 2.0
CREATION_DATE  = 
ORIGINATOR     = 

OBJECT_NAME    = STARLINK-36511
OBJECT_ID      = 2026-008G
CENTER_NAME    = EARTH
REF_FRAME      = TEME
TIME_SYSTEM    = UTC
MEAN_ELEMENT_THEORY = SGP/SGP4

EPOCH          = 2026-01-26T12:00:00.998784
MEAN_MOTION    = 15.88734030
ECCENTRICITY   = .0001243
INCLINATION    = 43.0008
RA_OF_ASC_NODE = 89.7961
ARG_OF_PERICENTER = 285.7070
MEAN_ANOMALY   = 229.2044

EPHEMERIS_TYPE = 0
CLASSIFICATION_TYPE = U
NORAD_CAT_ID   = 67451
ELEMENT_SET_NO = 999
REV_AT_EPOCH   = 301
BSTAR          = -.45624E-2
MEAN_MOTION_DOT = -.1166638E-1
MEAN_MOTION_DDOT = 0

CCSDS_OMM_VERS = 2.0
CREATION_DATE  = 
ORIGINATOR     = 

OBJECT_NAME    = STARLINK-36524
OBJECT_ID      = 2026-008H
CENTER_NAME    = EARTH
REF_FRAME      = TEME
TIME_SYSTEM    = UTC
MEAN_ELEMENT_THEORY = SGP/SGP4

EPOCH          = 2026-01-26T12:00:00.998784
MEAN_MOTION    = 15.88758630
ECCENTRICITY   = .0001262
INCLINATION    = 43.0007
RA_OF_ASC_NODE = 89.7884
ARG_OF_PERICENTER = 288.9504
MEAN_ANOMALY   = 228.8908

EPHEMERIS_TYPE = 0
CLASSIFICATION_TYPE = U
NORAD_CAT_ID   = 67452
ELEMENT_SET_NO = 999
REV_AT_EPOCH   = 301
BSTAR          = -.46121E-2
MEAN_MOTION_DOT = -.1179027E-1
MEAN_MOTION_DDOT = 0

CCSDS_OMM_VERS = 2.0
CREATION_DATE  = 
ORIGINATOR     = 

OBJECT_NAME    = STARLINK-36518
OBJECT_ID      = 2026-008J
CENTER_NAME    = EARTH
REF_FRAME      = TEME
TIME_SYSTEM    = UTC
MEAN_ELEMENT_THEORY = SGP/SGP4

EPOCH          = 2026-01-26T12:00:00.998784
MEAN_MOTION    = 15.91104179
ECCENTRICITY   = .0001351
INCLINATION    = 42.9995
RA_OF_ASC_NODE = 89.4453
ARG_OF_PERICENTER = 281.3763
MEAN_ANOMALY   = 10.8803

EPHEMERIS_TYPE = 0
CLASSIFICATION_TYPE = U
NORAD_CAT_ID   = 67453
ELEMENT_SET_NO = 999
REV_AT_EPOCH   = 303
BSTAR          = -.52666E-2
MEAN_MOTION_DOT = -.1501441E-1
MEAN_MOTION_DDOT = 0

CCSDS_OMM_VERS = 2.0
CREATION_DATE  = 
ORIGINATOR     = 

OBJECT_NAME    = STARLINK-36517
OBJECT_ID      = 2026-008K
CENTER_NAME    = EARTH
REF_FRAME      = TEME
TIME_SYSTEM    = UTC
MEAN_ELEMENT_THEORY = SGP/SGP4

EPOCH          = 2026-01-26T12:00:00.998784
MEAN_MOTION    = 15.88772822
ECCENTRICITY   = .0001238
INCLINATION    = 43.0005
RA_OF_ASC_NODE = 89.7791
ARG_OF_PERICENTER = 284.3214
MEAN_ANOMALY   = 237.0714

EPHEMERIS_TYPE = 0
CLASSIFICATION_TYPE = U
NORAD_CAT_ID   = 67454
ELEMENT_SET_NO = 999
REV_AT_EPOCH   = 303
BSTAR          = -.46523E-2
MEAN_MOTION_DOT = -.1211767E-1
MEAN_MOTION_DDOT = 0

CCSDS_OMM_VERS = 2.0
CREATION_DATE  = 
ORIGINATOR     = 

OBJECT_NAME    = STARLINK-36516
OBJECT_ID      = 2026-008L
CENTER_NAME    = EARTH
REF_FRAME      = TEME
TIME_SYSTEM    = UTC
MEAN_ELEMENT_THEORY = SGP/SGP4

EPOCH          = 2026-01-26T12:00:00.998784
MEAN_MOTION    = 15.88852422
ECCENTRICITY   = .0001381
INCLINATION    = 43.0011
RA_OF_ASC_NODE = 89.7613
ARG_OF_PERICENTER = 280.1366
MEAN_ANOMALY   = 248.5807

EPHEMERIS_TYPE = 0
CLASSIFICATION_TYPE = U
NORAD_CAT_ID   = 67455
ELEMENT_SET_NO = 999
REV_AT_EPOCH   = 301
BSTAR          = -.47258E-2
MEAN_MOTION_DOT = -.123332E-1
MEAN_MOTION_DDOT = 0

CCSDS_OMM_VERS = 2.0
CREATION_DATE  = 
ORIGINATOR     = 

OBJECT_NAME    = STARLINK-36493
OBJECT_ID      = 2026-008M
CENTER_NAME    = EARTH
REF_FRAME      = TEME
TIME_SYSTEM    = UTC
MEAN_ELEMENT_THEORY = SGP/SGP4

EPOCH          = 2026-01-26T12:00:00.998784
MEAN_MOTION    = 15.88806488
ECCENTRICITY   = .0001193
INCLINATION    = 43.0009
RA_OF_ASC_NODE = 89.7748
ARG_OF_PERICENTER = 283.4740
MEAN_ANOMALY   = 239.8299

EPHEMERIS_TYPE = 0
CLASSIFICATION_TYPE = U
NORAD_CAT_ID   = 67456
ELEMENT_SET_NO = 999
REV_AT_EPOCH   = 301
BSTAR          = -.46788E-2
MEAN_MOTION_DOT = -.1219744E-1
MEAN_MOTION_DDOT = 0

CCSDS_OMM_VERS = 2.0
CREATION_DATE  = 
ORIGINATOR     = 

OBJECT_NAME    = STARLINK-36529
OBJECT_ID      = 2026-008N
CENTER_NAME    = EARTH
REF_FRAME      = TEME
TIME_SYSTEM    = UTC
MEAN_ELEMENT_THEORY = SGP/SGP4

EPOCH          = 2026-01-26T12:00:00.998784
MEAN_MOTION    = 15.88828345
ECCENTRICITY   = .0001337
INCLINATION    = 43.0009
RA_OF_ASC_NODE = 89.7675
ARG_OF_PERICENTER = 283.9030
MEAN_ANOMALY   = 242.1837

EPHEMERIS_TYPE = 0
CLASSIFICATION_TYPE = U
NORAD_CAT_ID   = 67457
ELEMENT_SET_NO = 999
REV_AT_EPOCH   = 301
BSTAR          = -.47075E-2
MEAN_MOTION_DOT = -.1227711E-1
MEAN_MOTION_DDOT = 0

CCSDS_OMM_VERS = 2.0
CREATION_DATE  = 
ORIGINATOR     = 

OBJECT_NAME    = STARLINK-36528
OBJECT_ID      = 2026-008P
CENTER_NAME    = EARTH
REF_FRAME      = TEME
TIME_SYSTEM    = UTC
MEAN_ELEMENT_THEORY = SGP/SGP4

EPOCH          = 2026-01-26T12:00:00.998784
MEAN_MOTION    = 15.88873787
ECCENTRICITY   = .0001138
INCLINATION    = 43.0010
RA_OF_ASC_NODE = 89.7538
ARG_OF_PERICENTER = 284.8005
MEAN_ANOMALY   = 246.8201

EPHEMERIS_TYPE = 0
CLASSIFICATION_TYPE = U
NORAD_CAT_ID   = 67458
ELEMENT_SET_NO = 999
REV_AT_EPOCH   = 303
BSTAR          = -.47616E-2
MEAN_MOTION_DOT = -.1242691E-1
MEAN_MOTION_DDOT = 0

CCSDS_OMM_VERS = 2.0
CREATION_DATE  = 
ORIGINATOR     = 

OBJECT_NAME    = STARLINK-36546
OBJECT_ID      = 2026-008Q
CENTER_NAME    = EARTH
REF_FRAME      = TEME
TIME_SYSTEM    = UTC
MEAN_ELEMENT_THEORY = SGP/SGP4

EPOCH          = 2026-01-26T12:00:00.998784
MEAN_MOTION    = 15.88887316
ECCENTRICITY   = .0001202
INCLINATION    = 43.0009
RA_OF_ASC_NODE = 89.7446
ARG_OF_PERICENTER = 285.7956
MEAN_ANOMALY   = 249.4386

EPHEMERIS_TYPE = 0
CLASSIFICATION_TYPE = U
NORAD_CAT_ID   = 67459
ELEMENT_SET_NO = 999
REV_AT_EPOCH   = 301
BSTAR          = -.48187E-2
MEAN_MOTION_DOT = -.1256709E-1
MEAN_MOTION_DDOT = 0

